[{"OBJECT_NAME":"TROLL","OBJECT_ID":"2025-009BB","EPOCH":"2026-03-09T05:24:19.835712","MEAN_MOTION":15.28164315,"ECCENTRICITY":0.00018165,"INCLINATION":97.3932,"RA_OF_ASC_NODE":150.7169,"ARG_OF_PERICENTER":59.185,"MEAN_ANOMALY":300.9568,"EPHEMERIS_TYPE":0,"CLASSIFICATION_TYPE":"U","NORAD_CAT_ID":62658,"ELEMENT_SET_NO":999,"REV_AT_EPOCH":11817,"BSTAR":0.00048220305,"MEAN_MOTION_DOT":0.00013174,"MEAN_MOTION_DDOT":0},{"OBJECT_NAME":"STARLINK-36558","OBJECT_ID":"2026-012G","EPOCH":"2026-03-09T23:15:36.018432","MEAN_MOTION":15.27601336,"ECCENTRICITY":0.00010629,"INCLINATION":42.9999,"RA_OF_ASC_NODE":312.9117,"ARG_OF_PERICENTER":155.2454,"MEAN_ANOMALY":204.8449,"EPHEMERIS_TYPE":0,"CLASSIFICATION_TYPE":"U","NORAD_CAT_ID":67499,"ELEMENT_SET_NO":999,"REV_AT_EPOCH":780,"BSTAR":0.001148142,"MEAN_MOTION_DOT":0.00031488,"MEAN_MOTION_DDOT":0}]
